{"spkid": "50293855", "covariance": {"epoch": "2458768.5", "labels": ["e", "q", "tp", "node", "peri", "i"], "data": [["9.86103025516089E-17", "-1.02294945094855E-16", "-9.698115568718288E-14", "-6.540610206318426E-15", "-7.811541092953334E-14", "-1.018099518679868E-14"], ["-1.02294945094855E-16", "1.062400895838908E-16", "1.045191704412039E-13", "6.614040725931105E-15", "8.428218894455238E-14", "1.143997342318639E-14"], ["-9.698115568718288E-14", "1.045191704412039E-13", "8.129523364222874E-10", "-4.535658797432475E-11", "7.693898347492545E-10", "3.583172823083778E-11"], ["-6.540610206318426E-15", "6.614040725931105E-15", "-4.535658797432475E-11", "9.076819883481512E-12", "-4.777425789269627E-11", "-1.109735441985001E-11"], ["-7.811541092953334E-14", "8.428218894455238E-14", "7.693898347492545E-10", "-4.777425789269627E-11", "7.352486815470641E-10", "3.52765802980639E-11"], ["-1.018099518679868E-14", "1.143997342318639E-14", "3.583172823083778E-11", "-1.109735441985001E-11", "3.52765802980639E-11", "6.984498558480337E-11"]], "elements": [{"sigma": 9.93027202807702e-09, "name": "e", "title": "eccentricity", "value": ".0254334396251822", "units": null, "label": "e"}, {"sigma": 1.03072833270407e-08, "name": "q", "title": "perihelion distance", "value": "1.015434185560228", "units": "au", "label": "q"}, {"units": "TDB", "value": "2458632.491117491377", "title": "time of perihelion passage", "sigma": 2.85123190291896e-05, "name": "tp", "label": "tp"}, {"label": "node", "units": "deg", "title": "longitude of the ascending node", "value": "25.73516345793741", "name": "om", "sigma": 3.01277610908635e-06}, {"value": "302.4766893812459", "title": "argument of perihelion", "units": "deg", "sigma": 2.71154694141013e-05, "name": "w", "label": "peri"}, {"label": "i", "title": "inclination", "value": "24.54913951468186", "units": "deg", "name": "i", "sigma": 8.35733124776106e-06}]}, "elements": [{"units": null, "value": ".0254418214366901", "title": "eccentricity", "name": "e", "sigma": "9.9871E-9", "label": "e"}, {"title": "semi-major axis", "value": "1.042203711640671", "units": "au", "name": "a", "sigma": "2.4122E-10", "label": "a"}, {"name": "q", "sigma": "1.0321E-8", "value": "1.015688150908453", "title": "perihelion distance", "units": "au", "label": "q"}, {"name": "i", "sigma": "8.3571E-6", "title": "inclination; angle with respect to x-y ecliptic plane", "value": "24.54799041708172", "units": "deg", "label": "i"}, {"label": "node", "title": "longitude of the ascending node", "value": "25.69459093273557", "units": "deg", "name": "om", "sigma": "3.0043E-6"}, {"label": "peri", "sigma": "2.6963E-5", "name": "w", "units": "deg", "title": "argument of perihelion", "value": "302.2383498093732"}, {"units": "deg", "title": "mean anomaly", "value": "219.9160270523535", "name": "ma", "sigma": "2.6541E-5", "label": "M"}, {"label": "tp", "name": "tp", "sigma": "2.8653E-5", "units": "TDB", "title": "time of perihelion passage", "value": "2461351.721415771556"}, {"label": "period", "units": "d", "value": "388.6219710380846", "title": "sidereal orbital period", "sigma": "1.3492E-7", "name": "per"}, {"value": ".9263500955398128", "title": "mean motion", "units": "deg/d", "name": "n", "sigma": "3.2161E-10", "label": "n"}, {"units": "au", "title": "aphelion distance", "value": "1.068719272372888", "sigma": "2.4736E-10", "name": "ad", "label": "Q"}], "epoch": "2461200.5"}